[{"code":"AX","name":"Åland Islands","capitalCity":"Mariehamn","phoneCode":"358","continent":{"code":"EU","name":"Europe"},"currency":{"code":"EUR","name":"Euro"},"flag":"http://www.oorsprong.org/WebSamples.CountryInfo/Flags/Åland_Islands.jpg","languages":{"code":"sv","name":"Swedish"}},{"code":"AF","name":"Afghanistan","capitalCity":"Kabul","phoneCode":"93","continent":{"code":"AS","name":"Asia"},"currency":{"code":"AFA","name":"Afghanis"},"flag":"http://www.oorsprong.org/WebSamples.CountryInfo/Flags/Afghanistan.jpg","languages":{"code":"pus","name":"Pushto"}},{"code":"AL","name":"Albania","capitalCity":"Tirana","phoneCode":"355","continent":{"code":"EU","name":"Europe"},"currency":{"code":"ALL","name":"Leke"},"flag":"http://www.oorsprong.org/WebSamples.CountryInfo/Flags/Albania.jpg","languages":{"code":"sq","name":"Albanian"}},{"code":"DZ","name":"Algeria","capitalCity":"Algiers","phoneCode":"213","continent":{"code":"AF","name":"Africa"},"currency":{"code":"DZD","name":"Algeria Dinars"},"flag":"http://www.oorsprong.org/WebSamples.CountryInfo/Flags/Algeria.jpg","languages":{"code":"ara","name":"Arabic"}},{"code":"AS","name":"American Samoa","capitalCity":"Pago Pago","phoneCode":"684","continent":{"code":"OC","name":"Ocenania"},"currency":{"code":"USD","name":"Dollars"},"flag":"http://www.oorsprong.org/WebSamples.CountryInfo/Flags/American_Samoa.jpg","languages":{"code":"eng","name":"English"}},{"code":"AD","name":"Andorra","capitalCity":"Andorra La Ville","phoneCode":"371","continent":{"code":"EU","name":"Europe"},"currency":{"code":"EUR","name":"Euro"},"flag":"http://www.oorsprong.org/WebSamples.CountryInfo/Flags/Andorra.jpg","languages":[{"code":"cat","name":"Catalan"},{"code":"es","name":"Spanish"},{"code":"fr","name":"French"},{"code":"glg","name":"Gallegan"},{"code":"por","name":"Portuguese"}]},{"code":"AO","name":"Angola","capitalCity":"Luanda","phoneCode":"244","continent":{"code":"AF","name":"Africa"},"currency":{"code":"AOA","name":"Kwanza"},"flag":"http://www.oorsprong.org/WebSamples.CountryInfo/Flags/Angola.jpg","languages":{"code":"bnt","name":"Bantu (Other)"}},{"code":"AI","name":"Anguilla","capitalCity":"The Valley","phoneCode":"264","continent":{"code":"AM","name":"The Americas"},"currency":{"code":"CAD","name":"Canadian Dollars"},"flag":"http://www.oorsprong.org/WebSamples.CountryInfo/Flags/Anguilla.jpg","languages":{}},{"code":"AQ","name":"Antarctica","capitalCity":"None","phoneCode":"0","continent":{"code":"AN","name":"Antarctica"},"currency":{"name":"Currency code NOT found"},"flag":"http://www.oorsprong.org/WebSamples.CountryInfo/Flags/Antartica.jpg","languages":{}},{"code":"AG","name":"Antigua & Barbuda","capitalCity":"St. John's","phoneCode":"1","continent":{"code":"AM","name":"The Americas"},"currency":{"code":"XCD","name":"East Caribbean Dollars"},"flag":"http://www.oorsprong.org/WebSamples.CountryInfo/Flags/Antigua.jpg","languages":{"code":"eng","name":"English"}},{"code":"AR","name":"Argentina","capitalCity":"Buenos Aires","phoneCode":"54","continent":{"code":"AM","name":"The Americas"},"currency":{"code":"ARS","name":"Pesos"},"flag":"http://www.oorsprong.org/WebSamples.CountryInfo/Flags/Argentina.jpg","languages":{"code":"es","name":"Spanish"}},{"code":"AM","name":"Armenia","capitalCity":"Yerevan","phoneCode":"374","continent":{"code":"AS","name":"Asia"},"currency":{"code":"AMD","name":"Drams"},"flag":"http://www.oorsprong.org/WebSamples.CountryInfo/Flags/Armenia.jpg","languages":{"code":"hy","name":"Armenian"}},{"code":"AW","name":"Aruba","capitalCity":"Oranjestad","phoneCode":"297","continent":{"code":"AM","name":"The Americas"},"currency":{"code":"AWG","name":"Aruba Guilders (also called Florins)"},"flag":"http://www.oorsprong.org/WebSamples.CountryInfo/Flags/Aruba.jpg","languages":{}},{"code":"AU","name":"Australia","capitalCity":"Canberra","phoneCode":"61","continent":{"code":"OC","name":"Ocenania"},"currency":{"code":"AUD","name":"Australian Dollars"},"flag":"http://www.oorsprong.org/WebSamples.CountryInfo/Flags/Australia.jpg","languages":{"code":"eng","name":"English"}},{"code":"AT","name":"Austria","capitalCity":"Vienna","phoneCode":"43","continent":{"code":"EU","name":"Europe"},"currency":{"code":"EUR","name":"Euro"},"flag":"http://www.oorsprong.org/WebSamples.CountryInfo/Flags/Austria.jpg","languages":{"code":"de","name":"German"}},{"code":"AZ","name":"Azerbaijan","capitalCity":"Baku","phoneCode":"994","continent":{"code":"AS","name":"Asia"},"currency":{"code":"AZM","name":"Manats"},"flag":"http://www.oorsprong.org/WebSamples.CountryInfo/Flags/Azerbaijan.jpg","languages":{"code":"aze","name":"Azerbaijani"}},{"code":"BS","name":"Bahamas","capitalCity":"Nassau","phoneCode":"1","continent":{"code":"AM","name":"The Americas"},"currency":{"code":"BSD","name":"Bahamas Dollars"},"flag":"http://www.oorsprong.org/WebSamples.CountryInfo/Flags/Bahamas.jpg","languages":{"code":"eng","name":"English"}},{"code":"BH","name":"Bahrain","capitalCity":"Manama","phoneCode":"973","continent":{"code":"AS","name":"Asia"},"currency":{"code":"BHD","name":"Bahrain Dinars"},"flag":"http://www.oorsprong.org/WebSamples.CountryInfo/Flags/Bahrain.jpg","languages":{"code":"ara","name":"Arabic"}},{"code":"BD","name":"Bangladesh","capitalCity":"Dhaka","phoneCode":"880","continent":{"code":"AS","name":"Asia"},"currency":{"code":"BDT","name":"Taka"},"flag":"http://www.oorsprong.org/WebSamples.CountryInfo/Flags/Bangladesh.jpg","languages":{"code":"ben","name":"Bengali"}},{"code":"BB","name":"Barbados","capitalCity":"Bridgetown","phoneCode":"1","continent":{"code":"AM","name":"The Americas"},"currency":{"code":"BBD","name":"Barbados Dollars"},"flag":"http://www.oorsprong.org/WebSamples.CountryInfo/Flags/Barbados.jpg","languages":{"code":"eng","name":"English"}},{"code":"BY","name":"Belarus","capitalCity":"Minsk","phoneCode":"375","continent":{"code":"EU","name":"Europe"},"currency":{"code":"BYR","name":"Rubles"},"flag":"http://www.oorsprong.org/WebSamples.CountryInfo/Flags/Belarus.jpg","languages":{"code":"bel","name":"Byelorussian"}},{"code":"BE","name":"Belgium","capitalCity":"Brussels","phoneCode":"32","continent":{"code":"EU","name":"Europe"},"currency":{"code":"EUR","name":"Euro"},"flag":"http://www.oorsprong.org/WebSamples.CountryInfo/Flags/Belgium.jpg","languages":{"code":"nl","name":"Dutch"}},{"code":"BZ","name":"Belize","capitalCity":"Belmopan","phoneCode":"501","continent":{"code":"AM","name":"The Americas"},"currency":{"code":"BZD","name":"Belize Dollars"},"flag":"http://www.oorsprong.org/WebSamples.CountryInfo/Flags/Belize.jpg","languages":{"code":"eng","name":"English"}},{"code":"BJ","name":"Benin","capitalCity":"Porto-Novo","phoneCode":"229","continent":{"code":"AF","name":"Africa"},"currency":{"code":"XOF","name":"Communauté Financière Africaine Francs"},"flag":"http://www.oorsprong.org/WebSamples.CountryInfo/Flags/Benin.jpg","languages":{"code":"fr","name":"French"}},{"code":"BM","name":"Bermuda","capitalCity":"Hamilton","phoneCode":"441","continent":{"code":"AM","name":"The Americas"},"currency":{"code":"BMD","name":"Bermuda Dollars"},"flag":"http://www.oorsprong.org/WebSamples.CountryInfo/Flags/Bermuda.jpg","languages":{}},{"code":"BT","name":"Bhutan","capitalCity":"Timphu","phoneCode":"975","continent":{"code":"AS","name":"Asia"},"currency":{"code":"BTN","name":"Ngultrum"},"flag":"http://www.oorsprong.org/WebSamples.CountryInfo/Flags/Bhutan.jpg","languages":{"code":"dzo","name":"Dzongkha"}},{"code":"BO","name":"Bolivia","capitalCity":"La Paz","phoneCode":"591","continent":{"code":"AM","name":"The Americas"},"currency":{"code":"BOB","name":"Bolivianos"},"flag":"http://www.oorsprong.org/WebSamples.CountryInfo/Flags/Bolivia.jpg","languages":{"code":"es","name":"Spanish"}},{"code":"BQ","name":"Bonaire, Sint Eustatius and Saba","capitalCity":"-","phoneCode":"599","continent":{"code":"AM","name":"The Americas"},"currency":{"code":"USD","name":"Dollars"},"flag":"http://www.oorsprong.org/WebSamples.CountryInfo/Flags/Netherlands.jpg","languages":{"code":"nl","name":"Dutch"}},{"code":"BA","name":"Bosnia & Herzegovina","capitalCity":"Sarajevo","phoneCode":"387","continent":{"code":"EU","name":"Europe"},"currency":{"code":"BAM","name":"Convertible Marka"},"flag":"http://www.oorsprong.org/WebSamples.CountryInfo/Flags/Bosnia_Herzegovina.jpg","languages":{"code":"scr","name":"Serbo-Croatian"}},{"code":"BW","name":"Botswana","capitalCity":"Gaborone","phoneCode":"267","continent":{"code":"AF","name":"Africa"},"currency":{"code":"BWP","name":"Pulas"},"flag":"http://www.oorsprong.org/WebSamples.CountryInfo/Flags/Botswana.jpg","languages":{"code":"eng","name":"English"}},{"code":"BV","name":"Bouvet Island","capitalCity":"None","phoneCode":"578","continent":{"code":"AN","name":"Antarctica"},"currency":{"code":"NOK","name":"Krone"},"flag":"http://www.oorsprong.org/WebSamples.CountryInfo/Flags/Norway.jpg","languages":{}},{"code":"BR","name":"Brazil","capitalCity":"Brasilia","phoneCode":"55","continent":{"code":"AM","name":"The Americas"},"currency":{"code":"BRL","name":"Brazil Real"},"flag":"http://www.oorsprong.org/WebSamples.CountryInfo/Flags/Brazil.jpg","languages":{"code":"por","name":"Portuguese"}},{"code":"IO","name":"British Indian Ocean Territory","capitalCity":"Diego Garcia","phoneCode":"246","continent":{"code":"AS","name":"Asia"},"currency":{"code":"GBP","name":"Great Brittain Pounds"},"flag":"http://www.oorsprong.org/WebSamples.CountryInfo/Flags/British_Indian_Ocean_Territory.jpg","languages":{}},{"code":"BN","name":"Brunei-Darussalam","capitalCity":"Bandar Seri Begawan","phoneCode":"673","continent":{"code":"AS","name":"Asia"},"currency":{"code":"BND","name":"Brunei Dollars"},"flag":"http://www.oorsprong.org/WebSamples.CountryInfo/Flags/Brunei-Darussalam.jpg","languages":{"code":"ms","name":"Malay"}},{"code":"BG","name":"Bulgaria","capitalCity":"Sofia","phoneCode":"359","continent":{"code":"EU","name":"Europe"},"currency":{"code":"BGN","name":"Leva"},"flag":"http://www.oorsprong.org/WebSamples.CountryInfo/Flags/Bulgaria.jpg","languages":{"code":"bul","name":"Bulgarian"}},{"code":"BF","name":"Burkina Faso","capitalCity":"Ouagadougou","phoneCode":"226","continent":{"code":"AF","name":"Africa"},"currency":{"code":"XOF","name":"Communauté Financière Africaine Francs"},"flag":"http://www.oorsprong.org/WebSamples.CountryInfo/Flags/Burkina.jpg","languages":{"code":"fr","name":"French"}},{"code":"BI","name":"Burundi","capitalCity":"Bujumbura","phoneCode":"257","continent":{"code":"AF","name":"Africa"},"currency":{"code":"BIF","name":"Francs"},"flag":"http://www.oorsprong.org/WebSamples.CountryInfo/Flags/Burundi.jpg","languages":{"code":"rn","name":"Kirundi"}},{"code":"CI","name":"Côte D'Ivoire (Ivory Coast)","capitalCity":"Yamoussoukro","phoneCode":"225","continent":{"code":"AF","name":"Africa"},"currency":{"code":"XOF","name":"Communauté Financière Africaine Francs"},"flag":"http://www.oorsprong.org/WebSamples.CountryInfo/Flags/Ivory Coast.jpg","languages":{"code":"fr","name":"French"}},{"code":"KH","name":"Cambodia","capitalCity":"Phnom Penh","phoneCode":"855","continent":{"code":"AS","name":"Asia"},"currency":{"code":"KHR","name":"Riels"},"flag":"http://www.oorsprong.org/WebSamples.CountryInfo/Flags/Cambodia.jpg","languages":{"code":"khm","name":"Khmer"}},{"code":"CM","name":"Cameroon","capitalCity":"Yaounde","phoneCode":"237","continent":{"code":"AF","name":"Africa"},"currency":{"code":"XAF","name":"Communauté Financière Africaine Francs"},"flag":"http://www.oorsprong.org/WebSamples.CountryInfo/Flags/Cameroon.jpg","languages":{"code":"fr","name":"French"}},{"code":"CA","name":"Canada","capitalCity":"Ottawa","phoneCode":"1","continent":{"code":"AM","name":"The Americas"},"currency":{"code":"CAD","name":"Canadian Dollars"},"flag":"http://www.oorsprong.org/WebSamples.CountryInfo/Flags/Canada.jpg","languages":{"code":"eng","name":"English"}},{"code":"CV","name":"Cape Verde","capitalCity":"Cidade de Praia","phoneCode":"238","continent":{"code":"AF","name":"Africa"},"currency":{"code":"CVE","name":"Escudos"},"flag":"http://www.oorsprong.org/WebSamples.CountryInfo/Flags/Cape Verde.jpg","languages":{"code":"por","name":"Portuguese"}},{"code":"KY","name":"Cayman Islands","capitalCity":"George Town","phoneCode":"345","continent":{"code":"AM","name":"The Americas"},"currency":{"code":"KYD","name":"Cayman Island Dollars"},"flag":"http://www.oorsprong.org/WebSamples.CountryInfo/Flags/Cayman_Islands.jpg","languages":{}},{"code":"CF","name":"Central African Republic","capitalCity":"Bangui","phoneCode":"236","continent":{"code":"AF","name":"Africa"},"currency":{"code":"XAF","name":"Communauté Financière Africaine Francs"},"flag":"http://www.oorsprong.org/WebSamples.CountryInfo/Flags/Central.jpg","languages":{"code":"fr","name":"French"}},{"code":"TD","name":"Chad","capitalCity":"N'Djamena","phoneCode":"235","continent":{"code":"AF","name":"Africa"},"currency":{"code":"XAF","name":"Communauté Financière Africaine Francs"},"flag":"http://www.oorsprong.org/WebSamples.CountryInfo/Flags/Chad.jpg","languages":{"code":"fr","name":"French"}},{"code":"CL","name":"Chile","capitalCity":"Santiago","phoneCode":"56","continent":{"code":"AM","name":"The Americas"},"currency":{"code":"CLP","name":"Pesos"},"flag":"http://www.oorsprong.org/WebSamples.CountryInfo/Flags/Chile.jpg","languages":{"code":"es","name":"Spanish"}},{"code":"CN","name":"China","capitalCity":"Beijing","phoneCode":"86","continent":{"code":"AS","name":"Asia"},"currency":{"code":"CNY","name":"Yuan Renminbi"},"flag":"http://www.oorsprong.org/WebSamples.CountryInfo/Flags/China.jpg","languages":{"code":"zh","name":"Chinese"}},{"code":"CX","name":"Chrismas Island","capitalCity":"Flying Fish Cove","phoneCode":"672","continent":{"code":"OC","name":"Ocenania"},"currency":{"code":"AUD","name":"Australian Dollars"},"flag":"http://www.oorsprong.org/WebSamples.CountryInfo/Flags/Christmas_Island.jpg","languages":{}},{"code":"CC","name":"Cocos (Keeling) Islands","capitalCity":"West Island","phoneCode":"287","continent":{"code":"OC","name":"Ocenania"},"currency":{"code":"AUD","name":"Australian Dollars"},"flag":"http://www.oorsprong.org/WebSamples.CountryInfo/Flags/Cocos_Keeling_Islands.jpg","languages":{}},{"code":"MF","name":"Collectivity of Saint Martin","capitalCity":"Marigot","phoneCode":"590","continent":{"code":"AM","name":"The Americas"},"currency":{"code":"EUR","name":"Euro"},"flag":"http://www.oorsprong.org/WebSamples.CountryInfo/Flags/France.jpg","languages":{"code":"fr","name":"French"}},{"code":"CO","name":"Colombia","capitalCity":"Bogota","phoneCode":"57","continent":{"code":"AM","name":"The Americas"},"currency":{"code":"COP","name":"Pesos"},"flag":"http://www.oorsprong.org/WebSamples.CountryInfo/Flags/Colombia.jpg","languages":{"code":"es","name":"Spanish"}},{"code":"KM","name":"Comoros","capitalCity":"Moroni","phoneCode":"269","continent":{"code":"AF","name":"Africa"},"currency":{"code":"KMF","name":"Francs"},"flag":"http://www.oorsprong.org/WebSamples.CountryInfo/Flags/Comoros.jpg","languages":{"code":"swa","name":"Swahili"}},{"code":"CG","name":"Congo","capitalCity":"Brazzerville","phoneCode":"242","continent":{"code":"AF","name":"Africa"},"currency":{"code":"CDF","name":"Congolese Francs"},"flag":"http://www.oorsprong.org/WebSamples.CountryInfo/Flags/Congo.jpg","languages":{"code":"fr","name":"French"}},{"code":"CD","name":"Congo, Democratic Republic","capitalCity":"Kinshasha","phoneCode":"243","continent":{"code":"AF","name":"Africa"},"currency":{"code":"XAF","name":"Communauté Financière Africaine Francs"},"flag":"http://www.oorsprong.org/WebSamples.CountryInfo/Flags/Congo.jpg","languages":{"code":"fr","name":"French"}},{"code":"CK","name":"Cook Islands","capitalCity":"Avarua","phoneCode":"682","continent":{"code":"OC","name":"Ocenania"},"currency":{"code":"NZD","name":"New Zealand Dollars"},"flag":"http://www.oorsprong.org/WebSamples.CountryInfo/Flags/Cook_Islands.jpg","languages":{}},{"code":"CR","name":"Costa Rica","capitalCity":"San Jose","phoneCode":"506","continent":{"code":"AM","name":"The Americas"},"currency":{"code":"CRC","name":"Colones"},"flag":"http://www.oorsprong.org/WebSamples.CountryInfo/Flags/Costa_Rica.jpg","languages":{"code":"es","name":"Spanish"}},{"code":"HR","name":"Croatia","capitalCity":"Zagreb","phoneCode":"385","continent":{"code":"EU","name":"Europe"},"currency":{"code":"HRK","name":"Kuna"},"flag":"http://www.oorsprong.org/WebSamples.CountryInfo/Flags/Croatia.jpg","languages":{"code":"scr","name":"Serbo-Croatian"}},{"code":"CU","name":"Cuba","capitalCity":"Havana","phoneCode":"53","continent":{"code":"AM","name":"The Americas"},"currency":{"code":"CUP","name":"Pesos"},"flag":"http://www.oorsprong.org/WebSamples.CountryInfo/Flags/Cuba.jpg","languages":{"code":"es","name":"Spanish"}},{"code":"CW","name":"Curaçao","capitalCity":"Willemstad","phoneCode":"5999","continent":{"code":"AM","name":"The Americas"},"currency":{"code":"ANG","name":"Netherlands Antilles Guilders (also called Florins)"},"flag":"http://www.oorsprong.org/WebSamples.CountryInfo/Flags/Curaçao.png","languages":[{"code":"eng","name":"English"},{"code":"nl","name":"Dutch"},{"code":"pap","name":"Papiamento"}]},{"code":"CY","name":"Cyprus","capitalCity":"Nicosia","phoneCode":"357","continent":{"code":"AS","name":"Asia"},"currency":{"code":"CYP","name":"Pounds"},"flag":"http://www.oorsprong.org/WebSamples.CountryInfo/Flags/Cyprus.jpg","languages":{"code":"el","name":"Greek, Modern (1453-)"}},{"code":"CZ","name":"Czech Republic","capitalCity":"Prague","phoneCode":"420","continent":{"code":"EU","name":"Europe"},"currency":{"code":"CZK","name":"Koruny"},"flag":"http://www.oorsprong.org/WebSamples.CountryInfo/Flags/Czech_Republic.jpg","languages":{"code":"cs","name":"Czech"}},{"code":"DK","name":"Denmark","capitalCity":"Copenhagen","phoneCode":"45","continent":{"code":"EU","name":"Europe"},"currency":{"code":"DKK","name":"Kroner"},"flag":"http://www.oorsprong.org/WebSamples.CountryInfo/Flags/Denmark.jpg","languages":{"code":"dan","name":"Danish"}},{"code":"DJ","name":"Djibouti","capitalCity":"Djibouti","phoneCode":"253","continent":{"code":"AF","name":"Africa"},"currency":{"code":"DJF","name":"Francs"},"flag":"http://www.oorsprong.org/WebSamples.CountryInfo/Flags/Djibouti.jpg","languages":{"code":"ara","name":"Arabic"}},{"code":"DM","name":"Dominica","capitalCity":"Roseau","phoneCode":"1","continent":{"code":"AM","name":"The Americas"},"currency":{"code":"XCD","name":"East Caribbean Dollars"},"flag":"http://www.oorsprong.org/WebSamples.CountryInfo/Flags/Dominica.jpg","languages":{"code":"eng","name":"English"}},{"code":"DO","name":"Dominican Republic","capitalCity":"Santo Domingo","phoneCode":"1","continent":{"code":"AM","name":"The Americas"},"currency":{"code":"DOP","name":"Pesos"},"flag":"http://www.oorsprong.org/WebSamples.CountryInfo/Flags/Dominica.jpg","languages":{"code":"es","name":"Spanish"}},{"code":"EC","name":"Ecuador","capitalCity":"Quito","phoneCode":"593","continent":{"code":"AM","name":"The Americas"},"currency":{"code":"USD","name":"Dollars"},"flag":"http://www.oorsprong.org/WebSamples.CountryInfo/Flags/Ecuador.jpg","languages":{"code":"es","name":"Spanish"}},{"code":"EG","name":"Egypt","capitalCity":"Cairo","phoneCode":"20","continent":{"code":"AF","name":"Africa"},"currency":{"code":"EGP","name":"Pounds"},"flag":"http://www.oorsprong.org/WebSamples.CountryInfo/Flags/Egypt.jpg","languages":{"code":"ara","name":"Arabic"}},{"code":"SV","name":"El Salvador","capitalCity":"San Salvador","phoneCode":"503","continent":{"code":"AM","name":"The Americas"},"currency":{"code":"SVC","name":"Colones"},"flag":"http://www.oorsprong.org/WebSamples.CountryInfo/Flags/El_Salvador.jpg","languages":{"code":"es","name":"Spanish"}},{"code":"GQ","name":"Equatorial Guinea","capitalCity":"Bata","phoneCode":"240","continent":{"code":"AF","name":"Africa"},"currency":{"code":"XAF","name":"Communauté Financière Africaine Francs"},"flag":"http://www.oorsprong.org/WebSamples.CountryInfo/Flags/Equatorial_Guinea.jpg","languages":{}},{"code":"ER","name":"Eritrea","capitalCity":"Asmara","phoneCode":"291","continent":{"code":"AF","name":"Africa"},"currency":{"code":"ERN","name":"Nakfa"},"flag":"http://www.oorsprong.org/WebSamples.CountryInfo/Flags/Eritrea.jpg","languages":{"code":"tir","name":"Tigrinya"}},{"code":"EE","name":"Estonia","capitalCity":"Tallinn","phoneCode":"372","continent":{"code":"EU","name":"Europe"},"currency":{"code":"EEK","name":"Krooni"},"flag":"http://www.oorsprong.org/WebSamples.CountryInfo/Flags/Estonia.jpg","languages":{"code":"est","name":"Estonian"}},{"code":"ET","name":"Ethiopia","capitalCity":"Addis Ababa","phoneCode":"251","continent":{"code":"AF","name":"Africa"},"currency":{"code":"ETB","name":"Birr"},"flag":"http://www.oorsprong.org/WebSamples.CountryInfo/Flags/Ethiopia.jpg","languages":{"code":"amh","name":"Amharic"}},{"code":"FK","name":"Falkand Islands (Malvinas)","capitalCity":"Port Stanley","phoneCode":"500","continent":{"code":"AM","name":"The Americas"},"currency":{"code":"FKP","name":"Falklands Pounds"},"flag":"http://www.oorsprong.org/WebSamples.CountryInfo/Flags/Falkland_Islands.Jpg","languages":{}},{"code":"FO","name":"Faroe Islands","capitalCity":"Torshavn","phoneCode":"298","continent":{"code":"EU","name":"Europe"},"currency":{"code":"DKK","name":"Kroner"},"flag":"http://www.oorsprong.org/WebSamples.CountryInfo/Flags/Faroe_Islands.jpg","languages":{}},{"code":"FJ","name":"Fiji","capitalCity":"Suva","phoneCode":"679","continent":{"code":"OC","name":"Ocenania"},"currency":{"code":"FJD","name":"Dollars"},"flag":"http://www.oorsprong.org/WebSamples.CountryInfo/Flags/Fiji.jpg","languages":{"code":"fij","name":"Fijian"}},{"code":"FI","name":"Finland","capitalCity":"Helsinki","phoneCode":"358","continent":{"code":"EU","name":"Europe"},"currency":{"code":"EUR","name":"Euro"},"flag":"http://www.oorsprong.org/WebSamples.CountryInfo/Flags/Finland.jpg","languages":{"code":"fin","name":"Finnish"}},{"code":"FR","name":"France","capitalCity":"Paris","phoneCode":"33","continent":{"code":"EU","name":"Europe"},"currency":{"code":"EUR","name":"Euro"},"flag":"http://www.oorsprong.org/WebSamples.CountryInfo/Flags/France.jpg","languages":{"code":"fr","name":"French"}},{"code":"GF","name":"French Guiana","capitalCity":"Cayenne","phoneCode":"594","continent":{"code":"AM","name":"The Americas"},"currency":{"code":"EUR","name":"Euro"},"flag":"http://www.oorsprong.org/WebSamples.CountryInfo/Flags/French_Guiana.jpg","languages":{}},{"code":"PF","name":"French Polynesia","capitalCity":"Papeete","phoneCode":"687","continent":{"code":"OC","name":"Ocenania"},"currency":{"code":"XPF","name":"Comptoirs Franþais du Pacifique Francs"},"flag":"http://www.oorsprong.org/WebSamples.CountryInfo/Flags/French_Polynesia.jpg","languages":{}},{"code":"TF","name":"French Southern Territories","capitalCity":"-","phoneCode":"0","continent":{"code":"AN","name":"Antarctica"},"currency":{"code":"EUR","name":"Euro"},"flag":"http://www.oorsprong.org/WebSamples.CountryInfo/Flags/French_Southern_Territories.jpg","languages":{"code":"fr","name":"French"}},{"code":"GA","name":"Gabon","capitalCity":"Libreville","phoneCode":"241","continent":{"code":"AF","name":"Africa"},"currency":{"code":"XAF","name":"Communauté Financière Africaine Francs"},"flag":"http://www.oorsprong.org/WebSamples.CountryInfo/Flags/Gabon.jpg","languages":{"code":"fr","name":"French"}},{"code":"GM","name":"Gambia","capitalCity":"Banjul","phoneCode":"220","continent":{"code":"AF","name":"Africa"},"currency":{"code":"GMD","name":"Dalasi"},"flag":"http://www.oorsprong.org/WebSamples.CountryInfo/Flags/Gambia.jpg","languages":{"code":"eng","name":"English"}},{"code":"GE","name":"Georgia","capitalCity":"Tbilisi","phoneCode":"995","continent":{"code":"AS","name":"Asia"},"currency":{"code":"GEL","name":"Lari"},"flag":"http://www.oorsprong.org/WebSamples.CountryInfo/Flags/Georgia.jpg","languages":{"code":"ka","name":"Georgian"}},{"code":"DE","name":"Germany","capitalCity":"Berlin","phoneCode":"49","continent":{"code":"EU","name":"Europe"},"currency":{"code":"EUR","name":"Euro"},"flag":"http://www.oorsprong.org/WebSamples.CountryInfo/Flags/Germany.jpg","languages":{"code":"de","name":"German"}},{"code":"GH","name":"Ghana","capitalCity":"Accra","phoneCode":"233","continent":{"code":"AF","name":"Africa"},"currency":{"code":"GHC","name":"Cedis"},"flag":"http://www.oorsprong.org/WebSamples.CountryInfo/Flags/Ghana.jpg","languages":{"code":"eng","name":"English"}},{"code":"GI","name":"Gibraltar","capitalCity":"Gibraltar","phoneCode":"350","continent":{"code":"EU","name":"Europe"},"currency":{"code":"GIP","name":"Gibraltar Pounds"},"flag":"http://www.oorsprong.org/WebSamples.CountryInfo/Flags/Gibraltar.jpg","languages":{}},{"code":"GR","name":"Greece","capitalCity":"Athens","phoneCode":"30","continent":{"code":"EU","name":"Europe"},"currency":{"code":"EUR","name":"Euro"},"flag":"http://www.oorsprong.org/WebSamples.CountryInfo/Flags/Greece.jpg","languages":{"code":"el","name":"Greek, Modern (1453-)"}},{"code":"GL","name":"Greenland","capitalCity":"Nuuk","phoneCode":"299","continent":{"code":"EU","name":"Europe"},"currency":{"code":"DKK","name":"Kroner"},"flag":"http://www.oorsprong.org/WebSamples.CountryInfo/Flags/Greenland.jpg","languages":{}},{"code":"GD","name":"Grenada","capitalCity":"St. George's","phoneCode":"1","continent":{"code":"AM","name":"The Americas"},"currency":{"code":"XCD","name":"East Caribbean Dollars"},"flag":"http://www.oorsprong.org/WebSamples.CountryInfo/Flags/Grenada.jpg","languages":{"code":"eng","name":"English"}},{"code":"GP","name":"Guadeloupe","capitalCity":"Basse-Terre","phoneCode":"590","continent":{"code":"AM","name":"The Americas"},"currency":{"code":"EUR","name":"Euro"},"flag":"http://www.oorsprong.org/WebSamples.CountryInfo/Flags/Guadeloupe.jpg","languages":{}},{"code":"GU","name":"Guam","capitalCity":"Hagatna (Agana)","phoneCode":"671","continent":{"code":"OC","name":"Ocenania"},"currency":{"code":"USD","name":"Dollars"},"flag":"http://www.oorsprong.org/WebSamples.CountryInfo/Flags/Guam.jpg","languages":{}},{"code":"GT","name":"Guatemala","capitalCity":"Guatemala","phoneCode":"502","continent":{"code":"AM","name":"The Americas"},"currency":{"code":"GTQ","name":"Quetzales"},"flag":"http://www.oorsprong.org/WebSamples.CountryInfo/Flags/Guatemal.jpg","languages":{"code":"es","name":"Spanish"}},{"code":"GN","name":"Guinea","capitalCity":"Conakry","phoneCode":"224","continent":{"code":"AF","name":"Africa"},"currency":{"code":"GNF","name":"Francs"},"flag":"http://www.oorsprong.org/WebSamples.CountryInfo/Flags/Guinea.jpg","languages":{"code":"fr","name":"French"}},{"code":"GW","name":"Guinea-Bissau","capitalCity":"Bissau","phoneCode":"225","continent":{"code":"AF","name":"Africa"},"currency":{"code":"XOF","name":"Communauté Financière Africaine Francs"},"flag":"http://www.oorsprong.org/WebSamples.CountryInfo/Flags/Guinea-B.jpg","languages":{"code":"por","name":"Portuguese"}},{"code":"GY","name":"Guyana","capitalCity":"Georgetown","phoneCode":"592","continent":{"code":"AM","name":"The Americas"},"currency":{"code":"GYD","name":"Dollars"},"flag":"http://www.oorsprong.org/WebSamples.CountryInfo/Flags/Guyana.jpg","languages":{"code":"eng","name":"English"}},{"code":"HT","name":"Haiti","capitalCity":"Port-Au-Prince","phoneCode":"509","continent":{"code":"AM","name":"The Americas"},"currency":{"code":"HTG","name":"Gourdes"},"flag":"http://www.oorsprong.org/WebSamples.CountryInfo/Flags/Haiti.jpg","languages":{"code":"fr","name":"French"}},{"code":"HM","name":"Heard Island And McDonald Islands","capitalCity":"-","phoneCode":"0","continent":{"code":"OC","name":"Ocenania"},"currency":{"name":"Currency code NOT found"},"flag":"http://www.oorsprong.org/WebSamples.CountryInfo/Flags/Heard_Island_And_McDonald_Islands.jpg","languages":{}},{"code":"HN","name":"Honduras","capitalCity":"Tegucigalpa","phoneCode":"504","continent":{"code":"AM","name":"The Americas"},"currency":{"code":"HNL","name":"Lempiras"},"flag":"http://www.oorsprong.org/WebSamples.CountryInfo/Flags/Honduras.jpg","languages":{"code":"es","name":"Spanish"}},{"code":"HK","name":"Hong Kong","capitalCity":"Hong Kong","phoneCode":"852","continent":{"code":"AS","name":"Asia"},"currency":{"code":"HKD","name":"Hong Kong Dollars"},"flag":"http://www.oorsprong.org/WebSamples.CountryInfo/Flags/Hong_Kong.jpg","languages":{}},{"code":"HU","name":"Hungary","capitalCity":"Budapest","phoneCode":"36","continent":{"code":"EU","name":"Europe"},"currency":{"code":"HUF","name":"Forint"},"flag":"http://www.oorsprong.org/WebSamples.CountryInfo/Flags/Hungary.jpg","languages":{"code":"hun","name":"Hungarian"}},{"code":"IS","name":"Iceland","capitalCity":"Reykjavik","phoneCode":"354","continent":{"code":"EU","name":"Europe"},"currency":{"code":"ISK","name":"Kronur"},"flag":"http://www.oorsprong.org/WebSamples.CountryInfo/Flags/Iceland.jpg","languages":{"code":"is","name":"Icelandic"}},{"code":"IN","name":"India","capitalCity":"New Delhi","phoneCode":"91","continent":{"code":"AS","name":"Asia"},"currency":{"code":"INR","name":"Rupees"},"flag":"http://www.oorsprong.org/WebSamples.CountryInfo/Flags/India.jpg","languages":{"code":"hin","name":"Hindi"}},{"code":"ID","name":"Indonesia","capitalCity":"Jakarta","phoneCode":"62","continent":{"code":"AS","name":"Asia"},"currency":{"code":"IDR","name":"Rupiahs"},"flag":"http://www.oorsprong.org/WebSamples.CountryInfo/Flags/Indonesi.jpg","languages":{"code":"ind","name":"Indonesian"}},{"code":"IR","name":"Iran","capitalCity":"Tehran","phoneCode":"98","continent":{"code":"AS","name":"Asia"},"currency":{"code":"IRR","name":"Rials"},"flag":"http://www.oorsprong.org/WebSamples.CountryInfo/Flags/Iran.jpg","languages":{"code":"fa","name":"Persian"}},{"code":"IQ","name":"Iraq","capitalCity":"Baghdad","phoneCode":"964","continent":{"code":"AS","name":"Asia"},"currency":{"code":"IQD","name":"Dinars"},"flag":"http://www.oorsprong.org/WebSamples.CountryInfo/Flags/Iraq.jpg","languages":{"code":"ara","name":"Arabic"}},{"code":"IE","name":"Ireland","capitalCity":"Dublin","phoneCode":"353","continent":{"code":"EU","name":"Europe"},"currency":{"code":"EUR","name":"Euro"},"flag":"http://www.oorsprong.org/WebSamples.CountryInfo/Flags/Ireland.jpg","languages":{"code":"ga","name":"Irish"}},{"code":"IL","name":"Israel","capitalCity":"Jerusalem","phoneCode":"972","continent":{"code":"AS","name":"Asia"},"currency":{"code":"ILS","name":"New Shekels"},"flag":"http://www.oorsprong.org/WebSamples.CountryInfo/Flags/Israel.jpg","languages":{"code":"heb","name":"Hebrew"}},{"code":"IT","name":"Italy","capitalCity":"Rome","phoneCode":"39","continent":{"code":"EU","name":"Europe"},"currency":{"code":"EUR","name":"Euro"},"flag":"http://www.oorsprong.org/WebSamples.CountryInfo/Flags/Italy.jpg","languages":{"code":"ita","name":"Italian"}},{"code":"JM","name":"Jamaica","capitalCity":"Kingston","phoneCode":"1","continent":{"code":"AM","name":"The Americas"},"currency":{"code":"JMD","name":"Dollars"},"flag":"http://www.oorsprong.org/WebSamples.CountryInfo/Flags/Jamaica.jpg","languages":{"code":"eng","name":"English"}},{"code":"JP","name":"Japan","capitalCity":"Tokyo","phoneCode":"81","continent":{"code":"AS","name":"Asia"},"currency":{"code":"JPY","name":"Yen"},"flag":"http://www.oorsprong.org/WebSamples.CountryInfo/Flags/Japan.jpg","languages":{"code":"jpn","name":"Japanese"}},{"code":"JO","name":"Jordan","capitalCity":"Amman","phoneCode":"962","continent":{"code":"AS","name":"Asia"},"currency":{"code":"JOD","name":"Dinars"},"flag":"http://www.oorsprong.org/WebSamples.CountryInfo/Flags/Jordan.jpg","languages":{"code":"ara","name":"Arabic"}},{"code":"KZ","name":"Kazakhstan","capitalCity":"Almaty","phoneCode":"7","continent":{"code":"AS","name":"Asia"},"currency":{"code":"KZT","name":"Tenge"},"flag":"http://www.oorsprong.org/WebSamples.CountryInfo/Flags/Kazakhst.jpg","languages":{"code":"kaz","name":"Kazakh"}},{"code":"KE","name":"Kenya","capitalCity":"Nairobi","phoneCode":"254","continent":{"code":"AF","name":"Africa"},"currency":{"code":"KES","name":"Shillings"},"flag":"http://www.oorsprong.org/WebSamples.CountryInfo/Flags/Kenya.jpg","languages":{"code":"swa","name":"Swahili"}},{"code":"KI","name":"Kiribati","capitalCity":"Tarawa","phoneCode":"686","continent":{"code":"OC","name":"Ocenania"},"currency":{"code":"AUD","name":"Australian Dollars"},"flag":"http://www.oorsprong.org/WebSamples.CountryInfo/Flags/Kiribati.jpg","languages":{"code":"eng","name":"English"}},{"code":"KW","name":"Kuwait","capitalCity":"Kuwait","phoneCode":"965","continent":{"code":"AS","name":"Asia"},"currency":{"code":"KWD","name":"Dinars"},"flag":"http://www.oorsprong.org/WebSamples.CountryInfo/Flags/Kuwait.jpg","languages":{"code":"ara","name":"Arabic"}},{"code":"KG","name":"Kyrgyzstan","capitalCity":"Bishkek","phoneCode":"996","continent":{"code":"AS","name":"Asia"},"currency":{"code":"KGS","name":"Soms"},"flag":"http://www.oorsprong.org/WebSamples.CountryInfo/Flags/Kyrgyzst.jpg","languages":{"code":"kir","name":"Kirghiz"}},{"code":"LA","name":"Laos","capitalCity":"Vientiane","phoneCode":"856","continent":{"code":"AS","name":"Asia"},"currency":{"code":"LAK","name":"Kips"},"flag":"http://www.oorsprong.org/WebSamples.CountryInfo/Flags/Laos.jpg","languages":{"code":"lao","name":"Lao"}},{"code":"LV","name":"Latvia","capitalCity":"Riga","phoneCode":"371","continent":{"code":"EU","name":"Europe"},"currency":{"code":"LVL","name":"Lati"},"flag":"http://www.oorsprong.org/WebSamples.CountryInfo/Flags/Latvia.jpg","languages":{"code":"lav","name":"Latvian"}},{"code":"LB","name":"Lebanon","capitalCity":"Beirut","phoneCode":"961","continent":{"code":"AS","name":"Asia"},"currency":{"code":"LBP","name":"Pounds"},"flag":"http://www.oorsprong.org/WebSamples.CountryInfo/Flags/Lebanon.jpg","languages":{"code":"ara","name":"Arabic"}},{"code":"LS","name":"Lesotho","capitalCity":"Masera","phoneCode":"266","continent":{"code":"AF","name":"Africa"},"currency":{"code":"LSL","name":"Maloti"},"flag":"http://www.oorsprong.org/WebSamples.CountryInfo/Flags/Lesotho.jpg","languages":{"code":"st","name":"Sesotho"}},{"code":"LR","name":"Liberia","capitalCity":"Monrovia","phoneCode":"231","continent":{"code":"AF","name":"Africa"},"currency":{"code":"LRD","name":"Dollars"},"flag":"http://www.oorsprong.org/WebSamples.CountryInfo/Flags/Liberia.jpg","languages":{"code":"eng","name":"English"}},{"code":"LY","name":"Libyan Arab Jamahiriya","capitalCity":"Tripoli","phoneCode":"218","continent":{"code":"AF","name":"Africa"},"currency":{"code":"LYD","name":"Dinars"},"flag":"http://www.oorsprong.org/WebSamples.CountryInfo/Flags/Libyan.jpg","languages":{"code":"ara","name":"Arabic"}},{"code":"LI","name":"Liechtenstein","capitalCity":"Vaduz","phoneCode":"423","continent":{"code":"EU","name":"Europe"},"currency":{"code":"CHF","name":"Swiss Francs"},"flag":"http://www.oorsprong.org/WebSamples.CountryInfo/Flags/Liechten.jpg","languages":{"code":"de","name":"German"}},{"code":"LT","name":"Lithuania","capitalCity":"Vilnius","phoneCode":"370","continent":{"code":"EU","name":"Europe"},"currency":{"code":"LTL","name":"Litai"},"flag":"http://www.oorsprong.org/WebSamples.CountryInfo/Flags/Lithuania.jpg","languages":{"code":"lit","name":"Lithuanian"}},{"code":"LU","name":"Luxembourg","capitalCity":"Luxembourg","phoneCode":"352","continent":{"code":"EU","name":"Europe"},"currency":{"code":"EUR","name":"Euro"},"flag":"http://www.oorsprong.org/WebSamples.CountryInfo/Flags/Luxembourg.jpg","languages":{"code":"ltz","name":"Letzeburgesch"}},{"code":"MO","name":"Macao","capitalCity":"Macao","phoneCode":"853","continent":{"code":"AS","name":"Asia"},"currency":{"code":"MOP","name":"Patacas"},"flag":"http://www.oorsprong.org/WebSamples.CountryInfo/Flags/Macao.jpg","languages":{}},{"code":"MK","name":"Macedonia  (former YR)","capitalCity":"Skopje","phoneCode":"389","continent":{"code":"EU","name":"Europe"},"currency":{"code":"MKD","name":"Denars"},"flag":"http://www.oorsprong.org/WebSamples.CountryInfo/Flags/Macedoni.jpg","languages":{"code":"mk","name":"Macedonian"}},{"code":"MG","name":"Madagascar","capitalCity":"Antananarivo","phoneCode":"261","continent":{"code":"AF","name":"Africa"},"currency":{"code":"MGA","name":"Ariary"},"flag":"http://www.oorsprong.org/WebSamples.CountryInfo/Flags/Madagascar.jpg","languages":{"code":"mlg","name":"Malagasy"}},{"code":"MW","name":"Malawi","capitalCity":"Lilongwe","phoneCode":"265","continent":{"code":"AF","name":"Africa"},"currency":{"code":"MWK","name":"Kwachas"},"flag":"http://www.oorsprong.org/WebSamples.CountryInfo/Flags/Malawi.jpg","languages":{"code":"eng","name":"English"}},{"code":"MY","name":"Malaysia","capitalCity":"Kuala Lumpur","phoneCode":"60","continent":{"code":"AS","name":"Asia"},"currency":{"code":"MYR","name":"Ringgits"},"flag":"http://www.oorsprong.org/WebSamples.CountryInfo/Flags/Malaysia.jpg","languages":{"code":"ms","name":"Malay"}},{"code":"MV","name":"Maldives (Maladive Ilands)","capitalCity":"Male","phoneCode":"960","continent":{"code":"AS","name":"Asia"},"currency":{"code":"MVR","name":"Rufiyaa"},"flag":"http://www.oorsprong.org/WebSamples.CountryInfo/Flags/Maldives.jpg","languages":{"code":"div","name":"Divehi"}},{"code":"ML","name":"Mali","capitalCity":"Bamako","phoneCode":"223","continent":{"code":"AF","name":"Africa"},"currency":{"code":"XOF","name":"Communauté Financière Africaine Francs"},"flag":"http://www.oorsprong.org/WebSamples.CountryInfo/Flags/Mali.jpg","languages":{"code":"fr","name":"French"}},{"code":"MT","name":"Malta","capitalCity":"Valetta","phoneCode":"356","continent":{"code":"EU","name":"Europe"},"currency":{"code":"MTL","name":"Liri"},"flag":"http://www.oorsprong.org/WebSamples.CountryInfo/Flags/Malta.jpg","languages":{"code":"mlt","name":"Maltese"}},{"code":"MH","name":"Marshall Islands","capitalCity":"Majuro","phoneCode":"692","continent":{"code":"OC","name":"Ocenania"},"currency":{"code":"USD","name":"Dollars"},"flag":"http://www.oorsprong.org/WebSamples.CountryInfo/Flags/Marshall.jpg","languages":{"code":"eng","name":"English"}},{"code":"MQ","name":"Martinique","capitalCity":"Fort-de-France","phoneCode":"596","continent":{"code":"AM","name":"The Americas"},"currency":{"code":"EUR","name":"Euro"},"flag":"http://www.oorsprong.org/WebSamples.CountryInfo/Flags/Martinique.jpg","languages":{}},{"code":"MR","name":"Mauritania","capitalCity":"Novakchott","phoneCode":"222","continent":{"code":"AF","name":"Africa"},"currency":{"code":"MRO","name":"Ouguiyas"},"flag":"http://www.oorsprong.org/WebSamples.CountryInfo/Flags/Mauritan.jpg","languages":{"code":"fr","name":"French"}},{"code":"MU","name":"Mauritius","capitalCity":"Port Louis","phoneCode":"230","continent":{"code":"AF","name":"Africa"},"currency":{"code":"MUR","name":"Rupees"},"flag":"http://www.oorsprong.org/WebSamples.CountryInfo/Flags/Mauritiu.jpg","languages":{"code":"eng","name":"English"}},{"code":"YT","name":"Mayotte","capitalCity":"Mamoudzou","phoneCode":"269","continent":{"code":"AF","name":"Africa"},"currency":{"code":"EUR","name":"Euro"},"flag":"http://www.oorsprong.org/WebSamples.CountryInfo/Flags/Mayotte.jpg","languages":{"code":"fr","name":"French"}},{"code":"MX","name":"Mexico","capitalCity":"Mexico City","phoneCode":"52","continent":{"code":"AM","name":"The Americas"},"currency":{"code":"MXN","name":"Pesos"},"flag":"http://www.oorsprong.org/WebSamples.CountryInfo/Flags/Mexico.jpg","languages":{"code":"es","name":"Spanish"}},{"code":"FM","name":"Micronesia  (Federa States of)","capitalCity":"Kolonia","phoneCode":"691","continent":{"code":"OC","name":"Ocenania"},"currency":{"code":"USD","name":"Dollars"},"flag":"http://www.oorsprong.org/WebSamples.CountryInfo/Flags/Micrones.jpg","languages":{"code":"eng","name":"English"}},{"code":"MD","name":"Moldova, Republic of","capitalCity":"Kishinev","phoneCode":"373","continent":{"code":"EU","name":"Europe"},"currency":{"code":"MDL","name":"Lei"},"flag":"http://www.oorsprong.org/WebSamples.CountryInfo/Flags/Moldova.jpg","languages":{"code":"ro","name":"Romanian"}},{"code":"MC","name":"Monaco","capitalCity":"Monaco","phoneCode":"377","continent":{"code":"EU","name":"Europe"},"currency":{"code":"EUR","name":"Euro"},"flag":"http://www.oorsprong.org/WebSamples.CountryInfo/Flags/Monaco.jpg","languages":{"code":"fr","name":"French"}},{"code":"MN","name":"Mongolia","capitalCity":"Ulan Bator","phoneCode":"976","continent":{"code":"AS","name":"Asia"},"currency":{"code":"MNT","name":"Tugriks"},"flag":"http://www.oorsprong.org/WebSamples.CountryInfo/Flags/Mongolia.jpg","languages":{"code":"mon","name":"Mongolian"}},{"code":"ME","name":"Montenegro","capitalCity":"Podgorica","phoneCode":"382","continent":{"code":"EU","name":"Europe"},"currency":{"code":"EUR","name":"Euro"},"flag":"http://www.oorsprong.org/WebSamples.CountryInfo/Flags/Montenegro.png","languages":{"code":"cnr","name":"Montenegrin"}},{"code":"MS","name":"Montserrat","capitalCity":"Plymouth","phoneCode":"664","continent":{"code":"AM","name":"The Americas"},"currency":{"code":"XCD","name":"East Caribbean Dollars"},"flag":"http://www.oorsprong.org/WebSamples.CountryInfo/Flags/Montserrat.jpg","languages":{}},{"code":"MA","name":"Morocco","capitalCity":"Rabat","phoneCode":"212","continent":{"code":"AF","name":"Africa"},"currency":{"code":"MAD","name":"Morocco Dirhams"},"flag":"http://www.oorsprong.org/WebSamples.CountryInfo/Flags/Morocco.jpg","languages":{"code":"ara","name":"Arabic"}},{"code":"MZ","name":"Mozambique","capitalCity":"Maputo","phoneCode":"258","continent":{"code":"AF","name":"Africa"},"currency":{"code":"MZM","name":"Meticais"},"flag":"http://www.oorsprong.org/WebSamples.CountryInfo/Flags/Mozambiq.jpg","languages":{"code":"por","name":"Portuguese"}},{"code":"MM","name":"Myanmar (Burma)","capitalCity":"Rangoon","phoneCode":"95","continent":{"code":"AS","name":"Asia"},"currency":{"code":"MMK","name":"Kyats"},"flag":"http://www.oorsprong.org/WebSamples.CountryInfo/Flags/Myanmar.jpg","languages":{"code":"my","name":"Burmese"}},{"code":"NA","name":"Namibia","capitalCity":"Windhoek","phoneCode":"264","continent":{"code":"AF","name":"Africa"},"currency":{"code":"NAD","name":"Dollars"},"flag":"http://www.oorsprong.org/WebSamples.CountryInfo/Flags/Namibia.jpg","languages":{"code":"afr","name":"Afrikaans"}},{"code":"NR","name":"Nauru","capitalCity":"Nauru","phoneCode":"674","continent":{"code":"OC","name":"Ocenania"},"currency":{"code":"AUD","name":"Australian Dollars"},"flag":"http://www.oorsprong.org/WebSamples.CountryInfo/Flags/Nauru.jpg","languages":{"code":"nau","name":"Nauru"}},{"code":"NP","name":"Nepal","capitalCity":"Katmandu","phoneCode":"977","continent":{"code":"AS","name":"Asia"},"currency":{"code":"NPR","name":"Nepal Rupees"},"flag":"http://www.oorsprong.org/WebSamples.CountryInfo/Flags/Nepal.jpg","languages":{"code":"nep","name":"Nepali"}},{"code":"NL","name":"Netherlands","capitalCity":"Amsterdam","phoneCode":"31","continent":{"code":"EU","name":"Europe"},"currency":{"code":"EUR","name":"Euro"},"flag":"http://www.oorsprong.org/WebSamples.CountryInfo/Flags/Netherlands.jpg","languages":[{"code":"fry","name":"Frisian"},{"code":"nl","name":"Dutch"}]},{"code":"AN","name":"Netherlands Antilles","capitalCity":"Willemstad","phoneCode":"599","continent":{"code":"AM","name":"The Americas"},"currency":{"code":"ANG","name":"Netherlands Antilles Guilders (also called Florins)"},"flag":"http://www.oorsprong.org/WebSamples.CountryInfo/Flags/Netherlands_Antilles.jpg","languages":{}},{"code":"NC","name":"New Caledonia","capitalCity":"Nouméa","phoneCode":"687","continent":{"code":"OC","name":"Ocenania"},"currency":{"code":"XPF","name":"Comptoirs Franþais du Pacifique Francs"},"flag":"http://www.oorsprong.org/WebSamples.CountryInfo/Flags/New_Caledonia.jpg","languages":{}},{"code":"NZ","name":"New Zealand","capitalCity":"Wellington","phoneCode":"64","continent":{"code":"OC","name":"Ocenania"},"currency":{"code":"NZD","name":"New Zealand Dollars"},"flag":"http://www.oorsprong.org/WebSamples.CountryInfo/Flags/New_Zealand.jpg","languages":{"code":"eng","name":"English"}},{"code":"NI","name":"Nicaragua","capitalCity":"Managua","phoneCode":"234","continent":{"code":"AM","name":"The Americas"},"currency":{"code":"NIO","name":"Cordobas"},"flag":"http://www.oorsprong.org/WebSamples.CountryInfo/Flags/Nicaragua.jpg","languages":{"code":"es","name":"Spanish"}},{"code":"NE","name":"Niger","capitalCity":"Niamey","phoneCode":"227","continent":{"code":"AF","name":"Africa"},"currency":{"code":"XOF","name":"Communauté Financière Africaine Francs"},"flag":"http://www.oorsprong.org/WebSamples.CountryInfo/Flags/Niger.jpg","languages":{"code":"fr","name":"French"}},{"code":"NG","name":"Nigeria","capitalCity":"Abuja","phoneCode":"234","continent":{"code":"AF","name":"Africa"},"currency":{"code":"NGN","name":"Nairas"},"flag":"http://www.oorsprong.org/WebSamples.CountryInfo/Flags/Nigeria.jpg","languages":[{"code":"eng","name":"English"},{"code":"hau","name":"Hausa"},{"code":"ibo","name":"Igbo"},{"code":"yor","name":"Yoruba"}]},{"code":"NU","name":"Niue","capitalCity":"Alofi","phoneCode":"683","continent":{"code":"OC","name":"Ocenania"},"currency":{"code":"NZD","name":"New Zealand Dollars"},"flag":"http://www.oorsprong.org/WebSamples.CountryInfo/Flags/Niue.jpg","languages":{}},{"code":"NF","name":"Norfolk Island","capitalCity":"Kingston","phoneCode":"672","continent":{"code":"OC","name":"Ocenania"},"currency":{"code":"AUD","name":"Australian Dollars"},"flag":"http://www.oorsprong.org/WebSamples.CountryInfo/Flags/Norfolk_Island.jpg","languages":{}},{"code":"KP","name":"North Korea","capitalCity":"Pyongyang","phoneCode":"850","continent":{"code":"AS","name":"Asia"},"currency":{"code":"KPW","name":"Won"},"flag":"http://www.oorsprong.org/WebSamples.CountryInfo/Flags/North_Korea.jpg","languages":{"code":"kor","name":"Korean"}},{"code":"MP","name":"Northern Mariana Islands","capitalCity":"Saipan","phoneCode":"670","continent":{"code":"OC","name":"Ocenania"},"currency":{"code":"USD","name":"Dollars"},"flag":"http://www.oorsprong.org/WebSamples.CountryInfo/Flags/Northern_Mariana_Islands.jpg","languages":{}},{"code":"NO","name":"Norway","capitalCity":"Oslo","phoneCode":"47","continent":{"code":"EU","name":"Europe"},"currency":{"code":"NOK","name":"Krone"},"flag":"http://www.oorsprong.org/WebSamples.CountryInfo/Flags/Norway.jpg","languages":{"code":"nor","name":"Norwegian"}},{"code":"OM","name":"Oman","capitalCity":"Muscat","phoneCode":"968","continent":{"code":"AS","name":"Asia"},"currency":{"code":"OMR","name":"Rials"},"flag":"http://www.oorsprong.org/WebSamples.CountryInfo/Flags/Oman.jpg","languages":{"code":"ara","name":"Arabic"}},{"code":"PK","name":"Pakistan","capitalCity":"Islamabad","phoneCode":"92","continent":{"code":"AS","name":"Asia"},"currency":{"code":"PKR","name":"Rupees"},"flag":"http://www.oorsprong.org/WebSamples.CountryInfo/Flags/Pakistan.jpg","languages":{"code":"urd","name":"Urdu"}},{"code":"PW","name":"Palau","capitalCity":"Koror","phoneCode":"680","continent":{"code":"OC","name":"Ocenania"},"currency":{"code":"USD","name":"Dollars"},"flag":"http://www.oorsprong.org/WebSamples.CountryInfo/Flags/Palau.jpg","languages":{"code":"eng","name":"English"}},{"code":"PS","name":"Palestinian Territory, Occupied","capitalCity":"East Jerusalem","phoneCode":"970","continent":{"code":"AS","name":"Asia"},"currency":{"code":"JMD","name":"Dollars"},"flag":"http://www.oorsprong.org/WebSamples.CountryInfo/Flags/Palestinian_Territory.jpg","languages":{"code":"ara","name":"Arabic"}},{"code":"PA","name":"Panama","capitalCity":"Panama","phoneCode":"507","continent":{"code":"AM","name":"The Americas"},"currency":{"code":"PAB","name":"Balboa"},"flag":"http://www.oorsprong.org/WebSamples.CountryInfo/Flags/Panama.jpg","languages":{"code":"es","name":"Spanish"}},{"code":"PG","name":"Papua-New Guinea","capitalCity":"Port Moresby","phoneCode":"675","continent":{"code":"OC","name":"Ocenania"},"currency":{"code":"PGK","name":"Kina"},"flag":"http://www.oorsprong.org/WebSamples.CountryInfo/Flags/Papua-New_Guinea.jpg","languages":{"code":"fr","name":"French"}},{"code":"PY","name":"Paraguay","capitalCity":"Asuncion","phoneCode":"595","continent":{"code":"AM","name":"The Americas"},"currency":{"code":"PYG","name":"Guarani"},"flag":"http://www.oorsprong.org/WebSamples.CountryInfo/Flags/Paraguay.jpg","languages":{"code":"es","name":"Spanish"}},{"code":"PE","name":"Peru","capitalCity":"Lima","phoneCode":"51","continent":{"code":"AM","name":"The Americas"},"currency":{"code":"PEN","name":"Nuevos Soles"},"flag":"http://www.oorsprong.org/WebSamples.CountryInfo/Flags/Peru.jpg","languages":{"code":"es","name":"Spanish"}},{"code":"PH","name":"Philippines","capitalCity":"Manila","phoneCode":"63","continent":{"code":"AS","name":"Asia"},"currency":{"code":"PHP","name":"Pesos"},"flag":"http://www.oorsprong.org/WebSamples.CountryInfo/Flags/Philippi.jpg","languages":{"code":"fil","name":"Filipino"}},{"code":"PN","name":"Pitcairn","capitalCity":"Adamstown","phoneCode":"672","continent":{"code":"OC","name":"Ocenania"},"currency":{"code":"NZD","name":"New Zealand Dollars"},"flag":"http://www.oorsprong.org/WebSamples.CountryInfo/Flags/Pitcairn.jpg","languages":{}},{"code":"PL","name":"Poland","capitalCity":"Warsaw","phoneCode":"48","continent":{"code":"EU","name":"Europe"},"currency":{"code":"PLN","name":"Zlotych"},"flag":"http://www.oorsprong.org/WebSamples.CountryInfo/Flags/Poland.jpg","languages":{"code":"pol","name":"Polish"}},{"code":"PT","name":"Portugal","capitalCity":"Lisbon","phoneCode":"351","continent":{"code":"EU","name":"Europe"},"currency":{"code":"EUR","name":"Euro"},"flag":"http://www.oorsprong.org/WebSamples.CountryInfo/Flags/Portugal.jpg","languages":{"code":"por","name":"Portuguese"}},{"code":"PR","name":"Puerto Rico","capitalCity":"San Juan","phoneCode":"787","continent":{"code":"AM","name":"The Americas"},"currency":{"code":"USD","name":"Dollars"},"flag":"http://www.oorsprong.org/WebSamples.CountryInfo/Flags/Puerto_Rico.jpg","languages":{"code":"es","name":"Spanish"}},{"code":"QA","name":"Quatar","capitalCity":"Doha","phoneCode":"974","continent":{"code":"AS","name":"Asia"},"currency":{"code":"QAR","name":"Rials"},"flag":"http://www.oorsprong.org/WebSamples.CountryInfo/Flags/Quatar.jpg","languages":{"code":"ara","name":"Arabic"}},{"code":"RE","name":"Reunion","capitalCity":"Saint-Denis","phoneCode":"262","continent":{"code":"AF","name":"Africa"},"currency":{"code":"EUR","name":"Euro"},"flag":"http://www.oorsprong.org/WebSamples.CountryInfo/Flags/Reunion.jpg","languages":[{"code":"cpf","name":"Creoles and Pidgins, French-based (Other)"},{"code":"fr","name":"French"}]},{"code":"RO","name":"Romania","capitalCity":"Bucharest","phoneCode":"40","continent":{"code":"EU","name":"Europe"},"currency":{"code":"RON","name":"New Lei"},"flag":"http://www.oorsprong.org/WebSamples.CountryInfo/Flags/Romania.jpg","languages":{"code":"ro","name":"Romanian"}},{"code":"RU","name":"Russian Federation","capitalCity":"Moscow","phoneCode":"7","continent":{"code":"AS","name":"Asia"},"currency":{"code":"RUB","name":"Rubles"},"flag":"http://www.oorsprong.org/WebSamples.CountryInfo/Flags/Russian.jpg","languages":{"code":"rus","name":"Russian"}},{"code":"RW","name":"Rwanda","capitalCity":"Kigali","phoneCode":"250","continent":{"code":"AF","name":"Africa"},"currency":{"code":"RWF","name":"Rwanda Francs"},"flag":"http://www.oorsprong.org/WebSamples.CountryInfo/Flags/Rwanda.jpg","languages":{"code":"kin","name":"Kinyarwanda"}},{"code":"BL","name":"Saint Barthélemy","capitalCity":"Gustavia","phoneCode":"590","continent":{"code":"AM","name":"The Americas"},"currency":{"code":"EUR","name":"Euro"},"flag":"http://www.oorsprong.org/WebSamples.CountryInfo/Flags/Saint_Barthelemy.png","languages":{"code":"fr","name":"French"}},{"code":"SH","name":"Saint Helena, Ascension and Tristan da Cunha","capitalCity":"Jamestown","phoneCode":"290","continent":{"code":"AM","name":"The Americas"},"currency":{"code":"SHP","name":"Pounds"},"flag":"http://www.oorsprong.org/WebSamples.CountryInfo/Flags/Saint_Helena.jpg","languages":{"code":"eng","name":"English"}},{"code":"PM","name":"Saint Pierre And Micquelon","capitalCity":"Saint Pierre","phoneCode":"508","continent":{"code":"AM","name":"The Americas"},"currency":{"code":"EUR","name":"Euro"},"flag":"http://www.oorsprong.org/WebSamples.CountryInfo/Flags/Saint_Pierre_And_Micquelon.jpg","languages":{"code":"fr","name":"French"}},{"code":"SM","name":"San Marino","capitalCity":"San Marino","phoneCode":"378","continent":{"code":"EU","name":"Europe"},"currency":{"code":"EUR","name":"Euro"},"flag":"http://www.oorsprong.org/WebSamples.CountryInfo/Flags/San_Marino.jpg","languages":{"code":"ita","name":"Italian"}},{"code":"ST","name":"Sao Tome & Principe","capitalCity":"Sao Tome","phoneCode":"239","continent":{"code":"AF","name":"Africa"},"currency":{"code":"STD","name":"Dobras"},"flag":"http://www.oorsprong.org/WebSamples.CountryInfo/Flags/Sao_Tome.jpg","languages":{"code":"por","name":"Portuguese"}},{"code":"SA","name":"Saudi Arabia","capitalCity":"Riyadh","phoneCode":"966","continent":{"code":"AS","name":"Asia"},"currency":{"code":"SAR","name":"Riyals"},"flag":"http://www.oorsprong.org/WebSamples.CountryInfo/Flags/Saudia_Arabia.jpg","languages":{"code":"ara","name":"Arabic"}},{"code":"SN","name":"Senegal","capitalCity":"Dakar","phoneCode":"221","continent":{"code":"AF","name":"Africa"},"currency":{"code":"XOF","name":"Communauté Financière Africaine Francs"},"flag":"http://www.oorsprong.org/WebSamples.CountryInfo/Flags/Senegal.jpg","languages":{"code":"fr","name":"French"}},{"code":"RS","name":"Serbia","capitalCity":"Belgrade","phoneCode":"381","continent":{"code":"EU","name":"Europe"},"currency":{"code":"RSD","name":"Serbian Dinar"},"flag":"http://www.oorsprong.org/WebSamples.CountryInfo/Flags/Serbia.png","languages":{"code":"sr","name":"Serbian"}},{"code":"SC","name":"Seychelles","capitalCity":"Victoria","phoneCode":"248","continent":{"code":"AF","name":"Africa"},"currency":{"code":"SCR","name":"Rupees"},"flag":"http://www.oorsprong.org/WebSamples.CountryInfo/Flags/Seychell.jpg","languages":{"code":"eng","name":"English"}},{"code":"SL","name":"Sierra Leone","capitalCity":"Freetown","phoneCode":"232","continent":{"code":"AF","name":"Africa"},"currency":{"code":"SLL","name":"Leones"},"flag":"http://www.oorsprong.org/WebSamples.CountryInfo/Flags/Sierra_Leone.jpg","languages":{"code":"eng","name":"English"}},{"code":"SG","name":"Singapore","capitalCity":"Singapore","phoneCode":"65","continent":{"code":"AS","name":"Asia"},"currency":{"code":"SGD","name":"Dollars"},"flag":"http://www.oorsprong.org/WebSamples.CountryInfo/Flags/Singapore.jpg","languages":{"code":"ms","name":"Malay"}},{"code":"SX","name":"Sint-Maarten","capitalCity":"Philipsburg","phoneCode":"1721","continent":{"code":"AM","name":"The Americas"},"currency":{"code":"ANG","name":"Netherlands Antilles Guilders (also called Florins)"},"flag":"http://www.oorsprong.org/WebSamples.CountryInfo/Flags/Sint_Maarten.png","languages":[{"code":"eng","name":"English"},{"code":"nl","name":"Dutch"}]},{"code":"SK","name":"Slovakia","capitalCity":"Bratislava","phoneCode":"421","continent":{"code":"EU","name":"Europe"},"currency":{"code":"SKK","name":"Koruny"},"flag":"http://www.oorsprong.org/WebSamples.CountryInfo/Flags/Slovakia.jpg","languages":{"code":"sk","name":"Slovak"}},{"code":"SI","name":"Slovenia","capitalCity":"Ljubljana","phoneCode":"386","continent":{"code":"EU","name":"Europe"},"currency":{"code":"SIT","name":"Tolars"},"flag":"http://www.oorsprong.org/WebSamples.CountryInfo/Flags/Slovenia.jpg","languages":{"code":"sk","name":"Slovak"}},{"code":"SB","name":"Solomon Islands","capitalCity":"Honiara","phoneCode":"677","continent":{"code":"OC","name":"Ocenania"},"currency":{"code":"SBD","name":"Dollars"},"flag":"http://www.oorsprong.org/WebSamples.CountryInfo/Flags/Solomon.jpg","languages":{"code":"eng","name":"English"}},{"code":"SO","name":"Somalia","capitalCity":"Mogadishu","phoneCode":"252","continent":{"code":"AF","name":"Africa"},"currency":{"code":"SOS","name":"Shillings"},"flag":"http://www.oorsprong.org/WebSamples.CountryInfo/Flags/Somalia.jpg","languages":{"code":"som","name":"Somali"}},{"code":"ZA","name":"South Africa","capitalCity":"Cape Town","phoneCode":"27","continent":{"code":"AF","name":"Africa"},"currency":{"code":"ZAR","name":"South Africa Rands"},"flag":"http://www.oorsprong.org/WebSamples.CountryInfo/Flags/South_Africa.jpg","languages":{"code":"eng","name":"English"}},{"code":"GS","name":"South Georgia & South Sandwich Islands","capitalCity":"Grytviken","phoneCode":"0","continent":{"code":"AM","name":"The Americas"},"currency":{"code":"GBP","name":"Great Brittain Pounds"},"flag":"http://www.oorsprong.org/WebSamples.CountryInfo/Flags/South_Georgia_And_South_Sandwich_Islands.jpg","languages":{}},{"code":"KR","name":"South Korea","capitalCity":"Seoul","phoneCode":"82","continent":{"code":"AS","name":"Asia"},"currency":{"code":"KRW","name":"Won"},"flag":"http://www.oorsprong.org/WebSamples.CountryInfo/Flags/South_Korea.jpg","languages":{"code":"kor","name":"Korean"}},{"code":"ES","name":"Spain","capitalCity":"Madrid","phoneCode":"34","continent":{"code":"EU","name":"Europe"},"currency":{"code":"EUR","name":"Euro"},"flag":"http://www.oorsprong.org/WebSamples.CountryInfo/Flags/Spain.jpg","languages":{"code":"es","name":"Spanish"}},{"code":"LK","name":"Sri Lanka","capitalCity":"Colombo","phoneCode":"94","continent":{"code":"AS","name":"Asia"},"currency":{"code":"LKR","name":"Rupees"},"flag":"http://www.oorsprong.org/WebSamples.CountryInfo/Flags/Sri_Lanka.jpg","languages":{"code":"sin","name":"Singhalese"}},{"code":"KN","name":"St. Kitts & Nevis","capitalCity":"Basseterre","phoneCode":"1","continent":{"code":"AM","name":"The Americas"},"currency":{"code":"XCD","name":"East Caribbean Dollars"},"flag":"http://www.oorsprong.org/WebSamples.CountryInfo/Flags/St._Kitts_Nevis.jpg","languages":{"code":"eng","name":"English"}},{"code":"LC","name":"St. Lucia","capitalCity":"Castries","phoneCode":"1","continent":{"code":"AM","name":"The Americas"},"currency":{"code":"XCD","name":"East Caribbean Dollars"},"flag":"http://www.oorsprong.org/WebSamples.CountryInfo/Flags/St._Lucia.jpg","languages":{"code":"eng","name":"English"}},{"code":"VC","name":"St. Vincent & Grenadines","capitalCity":"Kingstown","phoneCode":"1","continent":{"code":"AM","name":"The Americas"},"currency":{"code":"XCD","name":"East Caribbean Dollars"},"flag":"http://www.oorsprong.org/WebSamples.CountryInfo/Flags/St._Vincent-Grenadines.jpg","languages":{"code":"eng","name":"English"}},{"code":"SD","name":"Sudan","capitalCity":"Khartoum","phoneCode":"249","continent":{"code":"AF","name":"Africa"},"currency":{"code":"SDD","name":"Dinars"},"flag":"http://www.oorsprong.org/WebSamples.CountryInfo/Flags/Sudan.jpg","languages":{"code":"ara","name":"Arabic"}},{"code":"SR","name":"Suriname","capitalCity":"Paramaribo","phoneCode":"597","continent":{"code":"AM","name":"The Americas"},"currency":{"code":"SRD","name":"Dollars"},"flag":"http://www.oorsprong.org/WebSamples.CountryInfo/Flags/Suriname.jpg","languages":{"code":"nl","name":"Dutch"}},{"code":"SJ","name":"Svalbard And Jan Mayen","capitalCity":"Svalbard And Jan Mayen","phoneCode":"790","continent":{"code":"EU","name":"Europe"},"currency":{"code":"NOK","name":"Krone"},"flag":"http://www.oorsprong.org/WebSamples.CountryInfo/Flags/Svalbard_And_Jan_Mayen.jpg","languages":[{"code":"nor","name":"Norwegian"},{"code":"rus","name":"Russian"}]},{"code":"SZ","name":"Swaziland","capitalCity":"Mbabane","phoneCode":"269","continent":{"code":"AF","name":"Africa"},"currency":{"code":"SZL","name":"Emalangeni"},"flag":"http://www.oorsprong.org/WebSamples.CountryInfo/Flags/Swazilan.jpg","languages":{"code":"eng","name":"English"}},{"code":"SE","name":"Sweden","capitalCity":"Stockholm","phoneCode":"46","continent":{"code":"EU","name":"Europe"},"currency":{"code":"SEK","name":"Kronor"},"flag":"http://www.oorsprong.org/WebSamples.CountryInfo/Flags/Sweden.jpg","languages":{"code":"sv","name":"Swedish"}},{"code":"CH","name":"Switzerland","capitalCity":"Bern","phoneCode":"41","continent":{"code":"EU","name":"Europe"},"currency":{"code":"CHF","name":"Swiss Francs"},"flag":"http://www.oorsprong.org/WebSamples.CountryInfo/Flags/Switzerl.jpg","languages":{"code":"de","name":"German"}},{"code":"SY","name":"Syrian Arab Republic","capitalCity":"Damascus","phoneCode":"963","continent":{"code":"AS","name":"Asia"},"currency":{"code":"SYP","name":"Pounds"},"flag":"http://www.oorsprong.org/WebSamples.CountryInfo/Flags/Syria.jpg","languages":{"code":"ara","name":"Arabic"}},{"code":"TW","name":"Taiwan","capitalCity":"Taipei","phoneCode":"886","continent":{"code":"AS","name":"Asia"},"currency":{"code":"TWD","name":"New Dollars"},"flag":"http://www.oorsprong.org/WebSamples.CountryInfo/Flags/Taiwan.jpg","languages":{"code":"zh","name":"Chinese"}},{"code":"TJ","name":"Tajikistan","capitalCity":"Dushanbe","phoneCode":"992","continent":{"code":"AS","name":"Asia"},"currency":{"code":"RUB","name":"Rubles"},"flag":"http://www.oorsprong.org/WebSamples.CountryInfo/Flags/Tajikistan.jpg","languages":{"code":"tgk","name":"Tajik"}},{"code":"TZ","name":"Tanzania","capitalCity":"Dar es Salaam","phoneCode":"255","continent":{"code":"AF","name":"Africa"},"currency":{"code":"TZS","name":"Shillings"},"flag":"http://www.oorsprong.org/WebSamples.CountryInfo/Flags/Tanzania.jpg","languages":{"code":"swa","name":"Swahili"}},{"code":"TH","name":"Thailand","capitalCity":"Bangkok","phoneCode":"66","continent":{"code":"AS","name":"Asia"},"currency":{"code":"THB","name":"Baht"},"flag":"http://www.oorsprong.org/WebSamples.CountryInfo/Flags/Thailand.jpg","languages":{"code":"tha","name":"Thai"}},{"code":"TL","name":"Timor-Leste","capitalCity":"Dili","phoneCode":"670","continent":{"code":"AS","name":"Asia"},"currency":{"code":"USD","name":"Dollars"},"flag":"http://www.oorsprong.org/WebSamples.CountryInfo/Flags/Timor-Leste.jpg","languages":{"code":"por","name":"Portuguese"}},{"code":"TG","name":"Togo","capitalCity":"Lome","phoneCode":"228","continent":{"code":"AF","name":"Africa"},"currency":{"code":"XOF","name":"Communauté Financière Africaine Francs"},"flag":"http://www.oorsprong.org/WebSamples.CountryInfo/Flags/Togo.jpg","languages":{"code":"ewe","name":"Ewe"}},{"code":"TK","name":"Tokelau","capitalCity":"-","phoneCode":"690","continent":{"code":"OC","name":"Ocenania"},"currency":{"code":"NZD","name":"New Zealand Dollars"},"flag":"http://www.oorsprong.org/WebSamples.CountryInfo/Flags/Tokelau.jpg","languages":{"code":"tok","name":"Polli (Tokelau)"}},{"code":"TO","name":"Tonga","capitalCity":"Nuku'alofa","phoneCode":"676","continent":{"code":"OC","name":"Ocenania"},"currency":{"code":"TOP","name":"Pa'anga"},"flag":"http://www.oorsprong.org/WebSamples.CountryInfo/Flags/Tonga.jpg","languages":{"code":"tog","name":"Tonga (Nyasa)"}},{"code":"TT","name":"Trinidad & Tobago","capitalCity":"Port of Spain","phoneCode":"1","continent":{"code":"AM","name":"The Americas"},"currency":{"code":"TTD","name":"Dollars"},"flag":"http://www.oorsprong.org/WebSamples.CountryInfo/Flags/Trinidad.jpg","languages":{"code":"eng","name":"English"}},{"code":"TN","name":"Tunisia","capitalCity":"Tunis","phoneCode":"216","continent":{"code":"AF","name":"Africa"},"currency":{"code":"TND","name":"Dinars"},"flag":"http://www.oorsprong.org/WebSamples.CountryInfo/Flags/Tunisia.jpg","languages":{"code":"ara","name":"Arabic"}},{"code":"TR","name":"Turkey","capitalCity":"Ankara","phoneCode":"90","continent":{"code":"AS","name":"Asia"},"currency":{"code":"TRY","name":"New Lira"},"flag":"http://www.oorsprong.org/WebSamples.CountryInfo/Flags/Turkey.jpg","languages":{"code":"tur","name":"Turkish"}},{"code":"TM","name":"Turkmenistan","capitalCity":"Ashkhabad","phoneCode":"993","continent":{"code":"AS","name":"Asia"},"currency":{"code":"TMM","name":"Manats"},"flag":"http://www.oorsprong.org/WebSamples.CountryInfo/Flags/Turkmeni.jpg","languages":{"code":"tuk","name":"Turkmen"}},{"code":"TC","name":"Turks And Caicos Islands","capitalCity":"Cockburn Town, Grand Turk","phoneCode":"649","continent":{"code":"AM","name":"The Americas"},"currency":{"code":"USD","name":"Dollars"},"flag":"http://www.oorsprong.org/WebSamples.CountryInfo/Flags/Turks_And_Caicos_Islands.jpg","languages":{"code":"eng","name":"English"}},{"code":"TV","name":"Tuvalu","capitalCity":"Funafuti","phoneCode":"688","continent":{"code":"OC","name":"Ocenania"},"currency":{"code":"TVD","name":"Tuvalu Dollars"},"flag":"http://www.oorsprong.org/WebSamples.CountryInfo/Flags/Tuvalu.jpg","languages":{"code":"tyv","name":"Tuvinian"}},{"code":"UG","name":"Uganda","capitalCity":"Kampala","phoneCode":"256","continent":{"code":"AF","name":"Africa"},"currency":{"code":"UGX","name":"Shillings"},"flag":"http://www.oorsprong.org/WebSamples.CountryInfo/Flags/Uganda.jpg","languages":{"code":"eng","name":"English"}},{"code":"UA","name":"Ukraine","capitalCity":"Kiev","phoneCode":"380","continent":{"code":"EU","name":"Europe"},"currency":{"code":"UAH","name":"Hryvnia"},"flag":"http://www.oorsprong.org/WebSamples.CountryInfo/Flags/Ukraine.jpg","languages":{"code":"ukr","name":"Ukrainian"}},{"code":"AE","name":"United Arab Emirates","capitalCity":"Abu Dhabi","phoneCode":"971","continent":{"code":"AS","name":"Asia"},"currency":{"code":"AED","name":"Dirhams"},"flag":"http://www.oorsprong.org/WebSamples.CountryInfo/Flags/United_Arab_Emirates.jpg","languages":{"code":"ara","name":"Arabic"}},{"code":"GB","name":"United Kingdom","capitalCity":"London","phoneCode":"44","continent":{"code":"EU","name":"Europe"},"currency":{"code":"GBP","name":"Great Brittain Pounds"},"flag":"http://www.oorsprong.org/WebSamples.CountryInfo/Flags/United_Kingdom.jpg","languages":{"code":"eng","name":"English"}},{"code":"US","name":"United States","capitalCity":"Washington","phoneCode":"1","continent":{"code":"AM","name":"The Americas"},"currency":{"code":"USD","name":"Dollars"},"flag":"http://www.oorsprong.org/WebSamples.CountryInfo/Flags/USA.jpg","languages":{"code":"eng","name":"English"}},{"code":"UM","name":"United States Minor Outlying Islands","capitalCity":"-","phoneCode":"808","continent":{"code":"OC","name":"Ocenania"},"currency":{"code":"USD","name":"Dollars"},"flag":"http://www.oorsprong.org/WebSamples.CountryInfo/Flags/United_States_Minor_Outlying_Islands.jpg","languages":{}},{"code":"UY","name":"Uruguay","capitalCity":"Montevideo","phoneCode":"598","continent":{"code":"AM","name":"The Americas"},"currency":{"code":"UYU","name":"Pesos"},"flag":"http://www.oorsprong.org/WebSamples.CountryInfo/Flags/Uruguay.jpg","languages":{"code":"es","name":"Spanish"}},{"code":"UZ","name":"Uzbekistan","capitalCity":"Tashkent","phoneCode":"998","continent":{"code":"AS","name":"Asia"},"currency":{"code":"UZS","name":"Sums"},"flag":"http://www.oorsprong.org/WebSamples.CountryInfo/Flags/Uzbekistan.jpg","languages":{"code":"uzb","name":"Uzbek"}},{"code":"VU","name":"Vanuatu","capitalCity":"Port Vila","phoneCode":"678","continent":{"code":"OC","name":"Ocenania"},"currency":{"code":"VUV","name":"Vatu"},"flag":"http://www.oorsprong.org/WebSamples.CountryInfo/Flags/Vanuatu.jpg","languages":{"code":"eng","name":"English"}},{"code":"VA","name":"Vatican City","capitalCity":"Vatican City","phoneCode":"39","continent":{"code":"EU","name":"Europe"},"currency":{"code":"EUR","name":"Euro"},"flag":"http://www.oorsprong.org/WebSamples.CountryInfo/Flags/Vatican.jpg","languages":{"code":"ita","name":"Italian"}},{"code":"VE","name":"Venezuela","capitalCity":"Caracas","phoneCode":"58","continent":{"code":"AM","name":"The Americas"},"currency":{"code":"VEB","name":"Bolivares"},"flag":"http://www.oorsprong.org/WebSamples.CountryInfo/Flags/Venezuela.jpg","languages":{"code":"es","name":"Spanish"}},{"code":"VN","name":"Vietnam","capitalCity":"Hanoi","phoneCode":"84","continent":{"code":"AS","name":"Asia"},"currency":{"code":"VND","name":"Dong"},"flag":"http://www.oorsprong.org/WebSamples.CountryInfo/Flags/Vietnam.jpg","languages":{"code":"vie","name":"Vietnamese"}},{"code":"VG","name":"Virgin Islands, British","capitalCity":"Road Town","phoneCode":"1284","continent":{"code":"AM","name":"The Americas"},"currency":{"code":"USD","name":"Dollars"},"flag":"http://www.oorsprong.org/WebSamples.CountryInfo/Flags/Virgin_Islands_British.jpg","languages":{}},{"code":"VI","name":"Virgin Islands, U.S.","capitalCity":"Charlotte Amalie","phoneCode":"340","continent":{"code":"AM","name":"The Americas"},"currency":{"code":"USD","name":"Dollars"},"flag":"http://www.oorsprong.org/WebSamples.CountryInfo/Flags/Virgin_Islands_U.S.jpg","languages":[{"code":"eng","name":"English"},{"code":"es","name":"Spanish"},{"code":"fr","name":"French"}]},{"code":"WF","name":"Wallis And Futuna","capitalCity":"Mata-Utu","phoneCode":"685","continent":{"code":"OC","name":"Ocenania"},"currency":{"code":"XPF","name":"Comptoirs Franþais du Pacifique Francs"},"flag":"http://www.oorsprong.org/WebSamples.CountryInfo/Flags/Wallis_And_Futuna.jpg","languages":{"code":"fr","name":"French"}},{"code":"EH","name":"Western Sahara","capitalCity":"Laâyoune","phoneCode":"212","continent":{"code":"AF","name":"Africa"},"currency":{"code":"AED","name":"Dirhams"},"flag":"http://www.oorsprong.org/WebSamples.CountryInfo/Flags/Western_Sahara.jpg","languages":[{"code":"ara","name":"Arabic"},{"code":"es","name":"Spanish"}]},{"code":"WS","name":"Western Samoa","capitalCity":"Apia","phoneCode":"685","continent":{"code":"OC","name":"Ocenania"},"currency":{"code":"WST","name":"Tala"},"flag":"http://www.oorsprong.org/WebSamples.CountryInfo/Flags/Western.jpg","languages":{"code":"ara","name":"Arabic"}},{"code":"YE","name":"Yemen","capitalCity":"Sanaa","phoneCode":"967","continent":{"code":"AS","name":"Asia"},"currency":{"code":"YER","name":"Rials"},"flag":"http://www.oorsprong.org/WebSamples.CountryInfo/Flags/Yemen.jpg","languages":{"code":"ara","name":"Arabic"}},{"code":"ZM","name":"Zambia","capitalCity":"Lusaka","phoneCode":"260","continent":{"code":"AF","name":"Africa"},"currency":{"code":"ZMK","name":"Kwacha"},"flag":"http://www.oorsprong.org/WebSamples.CountryInfo/Flags/Zambia.jpg","languages":{"code":"eng","name":"English"}},{"code":"ZW","name":"Zimbabwe","capitalCity":"Harare","phoneCode":"263","continent":{"code":"AF","name":"Africa"},"currency":{"code":"ZWD","name":"Zimbabwe Dollars"},"flag":"http://www.oorsprong.org/WebSamples.CountryInfo/Flags/Zimbabwe.jpg","languages":{"code":"eng","name":"English"}}]